CORVUS BC2              
1 42846U 17042X   18141.51094384 -.00000015  00000-0  38681-5 0  9995
2 42846  97.5995  45.3442 0008149 289.1818  70.8519 14.91808609 46399
CORVUS BC1              
1 42847U 17042Y   18141.62452244  .00000194  00000-0  24528-4 0  9992
2 42847  97.5994  45.4990 0007825 288.3108  71.7260 14.91907753 46406
SILU-1 (SILKROAD 1)     
1 42903U 17021F   18141.46167825  .00021393  00000-0  17125-3 0  9990
2 42903  42.7780 129.9739 0010061 115.4594  22.2269 15.70561640 45721
MIRATA                  
1 43015U 17073C   18141.34942579  .00001643  00000-0  13495-3 0  9998
2 43015  97.7035  73.4941 0258595 359.2813   0.7990 14.78073859 27173
ASTERIA                 
1 43020U 98067NH  18141.41407381  .00004038  00000-0  57850-4 0  9996
2 43020  51.6406 148.7828 0003355  66.5957 293.5388 15.58734073 28310
DELLINGR (RBLE)         
1 43021U 98067NJ  18141.56483834  .00004670  00000-0  69651-4 0  9994
2 43021  51.6382 149.0228 0003106  62.1242 298.0064 15.57207797 28324
TECHEDSAT 6             
1 43026U 98067NK  18135.04917276  .24108771  12366-4  25107-2 0  9998
2 43026  51.6059 164.5237 0004943 311.1143  50.3672 16.36895032 27437
OSIRIS-3U               
1 43027U 98067NL  18141.43701856  .00017513  00000-0  19456-3 0  9990
2 43027  51.6368 145.9111 0005026  43.3847 316.7543 15.62991627 28233
AEROCUBE 7B             
1 43042U 17071F   18141.62294265  .00002096  00000-0  64167-4 0  9995
2 43042  51.6378 170.9138 0005056 162.8745 197.2410 15.38704738 25516
AEROCUBE 7C             
1 43043U 17071G   18141.55798684  .00002090  00000-0  64013-4 0  9996
2 43043  51.6381 171.2335 0005075 164.7254 195.3884 15.38700731 25479
CHEFSAT                 
1 43044U 17071H   18141.58125629  .00001713  00000-0  53031-4 0  9992
2 43044  51.6387 170.6528 0004895 164.7833 195.3299 15.39489253 25480
ASGARDIA 1              
1 43049U 17071N   18141.34625671  .00001830  00000-0  57057-4 0  9995
2 43049  51.6382 172.0749 0002390 178.5930 181.5061 15.38836687 25446
ISARA                   
1 43050U 17071P   18141.58097327  .00002307  00000-0  68163-4 0  9994
2 43050  51.6379 170.6504 0002187 175.7675 184.3328 15.39360020 25481
FAUNA                   
1 43052U 17071R   18141.46686929  .00001621  00000-0  51517-4 0  9998
2 43052  51.6383 171.3869 0002345 174.3012 185.7999 15.38960046 25455
CORVUS BC3              
1 43118U 18004H   18141.25623884  .00000734  00000-0  35079-4 0  9995
2 43118  97.5350 203.7903 0010608 180.3827 179.7403 15.22200992 19616
MICROMAS-2A             
1 43131U 18004W   18141.42284127  .00001620  00000-0  72542-4 0  9993
2 43131  97.5359 204.0378 0009801 182.0339 178.0859 15.22703143 19646
GOMX4-B                 
1 43196U 18015E   18141.60939286  .00000403  00000-0  19780-4 0  9992
2 43196  97.3426 271.0962 0017664 248.9458 110.9899 15.23536764 16485
GOMX4-A                 
1 43197U 18015F   18141.61901799  .00000456  00000-0  21912-4 0  9990
2 43197  97.3427 271.1070 0017718 250.6324 166.7286 15.23631258 16494
UBAKUSAT                
1 43466U 98067NP  18141.47205987  .00009495  00000-0  14535-3 0  9998
2 43466  51.6405 151.8186 0001457  48.9372 105.4269 15.55092950  1544
1KUNS-PF                
1 43467U 98067NQ  18141.47165572  .00007300  00000-0  11324-3 0  9990
2 43467  51.6401 151.8138 0003591  42.8370 111.5980 15.55134474  1546
IRAZU                   
1 43468U 98067NR  18141.25142828  .00011021  00000-0  16718-3 0  9993
2 43468  51.6400 152.9176 0001231  49.5621 310.5426 15.55152000101498
